STARLINK-11089 [DTC]    
1 59426U 24065F   24121.93317630  .00026359  00000+0  20603-3 0  9993
2 59426  53.1582 203.8157 0001272  61.8588 298.2559 15.71480048  4952
STARLINK-31757          
1 59427U 24065G   24122.24697808  .00100529  00000+0  22321-2 0  9997
2 59427  53.1579 205.8287 0000218 337.3086  22.7910 15.42917123  4956
STARLINK-31752          
1 59428U 24065H   24122.52140258  .00109812  00000+0  18797-2 0  9997
2 59428  53.1554 203.9839 0002376  36.0764 324.0405 15.50419356  5003
STARLINK-31773          
1 59429U 24065J   24122.49186436  .00032506  00000+0  73523-3 0  9996
2 59429  53.1583 204.5140 0001514  63.0324 297.0837 15.42885184  4995
STARLINK-31772          
1 59430U 24065K   24122.58334491 -.00562987  00000+0 -13414-1 0  9998
2 59430  53.1590 203.7196 0001628  83.1064 245.4945 15.43217220  5019
STARLINK-31613          
1 59431U 24065L   24121.96470210  .00031849  00000+0  72181-3 0  9994
2 59431  53.1594 206.9094 0001974  60.3075 299.8128 15.42835326  4915
STARLINK-31780          
1 59432U 24065M   24122.52160511  .00019803  00000+0  36275-3 0  9998
2 59432  53.1579 203.9821 0001198  89.3532 270.7615 15.49345378  5001
STARLINK-31740          
1 59433U 24065N   24122.50113066  .00051553  00000+0  11570-2 0  9998
2 59433  53.1574 204.5672 0001377  57.1581 302.9557 15.42904321  4996
STARLINK-31580          
1 59434U 24065P   24122.49649501  .00026513  00000+0  60211-3 0  9990
2 59434  53.1589 204.5406 0000634  15.7336 344.3690 15.42873150  4994
STARLINK-31696          
1 59435U 24065Q   24121.96007454  .00075465  00000+0  16860-2 0  9997
2 59435  53.1585 206.8797 0001464  72.8445 287.2722 15.42870768  4911
STARLINK-31700          
1 59436U 24065R   24122.25002315 -.00037264  00000+0 -83072-3 0  9999
2 59436  53.1586 205.3510 0000964 193.8349  54.9239 15.42876547  4969
STARLINK-31706          
1 59437U 24065S   24121.96934072  .00022026  00000+0  50257-3 0  9998
2 59437  53.1593 206.9383 0002057 118.8981 241.2232 15.42843099  4912
STARLINK-31711          
1 59438U 24065T   24122.58334491 -.00099453  00000+0 -22481-2 0  9994
2 59438  53.1588 203.8262 0001256  87.9111 187.5350 15.42911043  5010
STARLINK-31708          
1 59439U 24065U   24122.58334491 -.01905737  00000+0 -45240-1 0  9994
2 59439  53.1591 203.6740 0001402  89.8716 261.7477 15.44419208  5012
STARLINK-31682          
1 59440U 24065V   24122.08295392  .00050072  00000+0  35872-3 0  9999
2 59440  53.1528 203.3295 0002327  41.1175 319.0019 15.73219177  4971
STARLINK-31693          
1 59441U 24065W   24121.93787277  .00018715  00000+0  34353-3 0  9992
2 59441  53.1565 206.7402 0001350  79.3386 280.7775 15.49326602  4914
TSAT-1A                 
1 59442U 24066A   24122.54043323  .00002770  00000+0  29246-3 0  9998
2 59442  45.6098 314.0622 0005856 228.5159 131.5217 14.91721549  3514
HAWK-8A                 
1 59443U 24066B   24121.93171801  .00002192  00000+0  23265-3 0  9997
2 59443  45.6051 317.0934 0006133 241.1817 118.8446 14.92284473  3427
CAPELLA-14 (ACADIA)     
1 59444U 24066C   24121.93102560  .00013216  00000+0  12941-2 0  9991
2 59444  45.6092 317.0926 0007166 247.5488 112.4631 14.92311347  3411
HAWK-8B                 
1 59445U 24066D   24121.93281661  .00002584  00000+0  27087-3 0  9996
2 59445  45.6179 317.1228 0006309 240.2112 119.8140 14.92224590  3415
HAWK-9A                 
1 59446U 24066E   24121.93055136  .00002130  00000+0  22629-3 0  9997
2 59446  45.6111 317.0980 0006013 243.3705 116.6558 14.92357321  3417
QPS-SAR-7 (TSUKUYOMI-II)
1 59447U 24066F   24122.53110051  .00005388  00000+0  53901-3 0  9998
2 59447  45.6101 314.0024 0005129 250.3502 109.6823 14.92435887  3504
HAWK-9C                 
1 59448U 24066G   24121.93118344  .00002219  00000+0  23532-3 0  9992
2 59448  45.6075 317.0958 0006429 236.0580 123.9688 14.92279715  3419
HAWK-8C                 
1 59449U 24066H   24121.93065425  .00002111  00000+0  22588-3 0  9995
2 59449  45.6090 317.0887 0005001 252.5191 107.5141 14.92094979  3413
HAWK-9B                 
1 59450U 24066J   24122.53344076  .00001815  00000+0  19613-3 0  9991
2 59450  45.6210 314.0286 0005860 239.5552 120.4748 14.92313946  3503
CENTAURI-6              
1 59451U 24066K   24121.92358680  .00005442  00000+0  54012-3 0  9992
2 59451  45.6066 317.0351 0005971 265.2184  94.8013 14.92737939  3421
425SAT-1                
1 59452U 24066L   24122.41598632  .00012922  00000+0  10447-2 0  9995
2 59452  45.4149 312.3124 0004968 130.0521 230.0794 14.99834205  3507
STARLINK-31617          
1 59455U 24068A   24122.25002315 -.00019161  00000+0 -32151-3 0  9991
2 59455  43.0002 293.3319 0001679 269.8879 178.0120 15.50585238  4545
STARLINK-31622          
1 59456U 24068B   24122.58334491 -.00014800  00000+0 -24692-3 0  9997
2 59456  42.9999 291.3747 0001761 252.5872 262.0171 15.50577833  4593
STARLINK-31319          
1 59457U 24068C   24122.58334491  .00032665  00000+0  56077-3 0  9997
2 59457  42.9998 291.3797 0002015 239.7579 272.9308 15.50554024  4591
STARLINK-31625          
1 59458U 24068D   24122.25002315 -.00020801  00000+0 -34967-3 0  9994
2 59458  43.0004 293.3172 0001687 243.6452 210.0295 15.50579556  4549
STARLINK-31631          
1 59459U 24068E   24122.25002315 -.02187418  00000+0 -46952-1 0  9990
2 59459  43.0003 293.3203 0001248 279.3180 172.7865 15.47589761  4543
STARLINK-31620          
1 59460U 24068F   24121.91667824  .00064065  00000+0  10925-2 0  9996
2 59460  43.0003 295.2590 0001533 277.9851 116.7638 15.50486641  4522
STARLINK-31482          
1 59461U 24068G   24121.91667824 -.00848872  00000+0 -46256-2 0  9991
2 59461  42.9982 292.9482 0001357 279.9817 321.0328 15.81148891  4522
STARLINK-31511          
1 59462U 24068H   24122.25002315 -.00028878  00000+0 -48812-3 0  9995
2 59462  43.0005 293.2921 0001830 240.2938 222.9879 15.50584389  4548
STARLINK-31364          
1 59463U 24068J   24122.58334491 -.02197345  00000+0 -43024-1 0  9991
2 59463  43.0000 291.3503 0001083 277.4646 246.6712 15.50194422  4596
STARLINK-31597          
1 59464U 24068K   24122.25002315 -.00020105  00000+0 -33777-3 0  9996
2 59464  43.0005 293.2867 0001841 243.9589 221.2498 15.50576298  4474
STARLINK-31621          
1 59465U 24068L   24122.58334491 -.00032736  00000+0 -55443-3 0  9993
2 59465  42.9999 291.3353 0001579 248.0790 281.9051 15.50582820  4591
STARLINK-31462          
1 59466U 24068M   24122.58334491 -.00786644  00000+0 -14303-1 0  9996
2 59466  43.0001 290.6869 0001723 265.3944 165.4991 15.51123777  4598
STARLINK-31592          
1 59467U 24068N   24121.91667824  .00045333  00000+0  77465-3 0  9993
2 59467  43.0003 295.2242 0001407 251.7073 156.2736 15.50558066  4528
STARLINK-31267          
1 59468U 24068P   24122.58334491  .00011439  00000+0  20055-3 0  9992
2 59468  43.0000 291.3200 0002071 250.9971 284.7326 15.50575175  4592
STARLINK-31381          
1 59469U 24068Q   24121.91667824  .00055008  00000+0  93779-3 0  9991
2 59469  43.0002 295.2144 0001282 257.3646 154.4634 15.50551732  4530
STARLINK-31546          
1 59470U 24068R   24122.58334491 -.02175288  00000+0 -43148-1 0  9998
2 59470  43.0000 291.3109 0001503 247.3469 291.9899 15.49790734  4597
STARLINK-31575          
1 59471U 24068S   24122.25002315  .00000996  00000+0  22800-4 0  9994
2 59471  43.0004 293.2523 0001513 254.1210 224.5438 15.50566582  4533
STARLINK-31375          
1 59472U 24068T   24121.91667824  .00048388  00000+0  82622-3 0  9993
2 59472  43.0003 295.1948 0001593 245.0303 174.4840 15.50555197  4535
STARLINK-31610          
1 59473U 24068U   24121.91667824  .00052667  00000+0  89836-3 0  9993
2 59473  43.0002 295.1998 0001682 245.1401 172.4538 15.50552547  4537
STARLINK-31581          
1 59474U 24068V   24121.91667824  .00048458  00000+0  82739-3 0  9992
2 59474  43.0002 295.1902 0001717 246.5153 174.9209 15.50555218  4520
STARLINK-31566          
1 59475U 24068W   24121.91667824  .00049410  00000+0  84345-3 0  9997
2 59475  43.0003 295.1855 0001821 252.4666 170.8918 15.50554632  4532
STARLINK-31515          
1 59476U 24068X   24122.58334491 -.00017066  00000+0 -28576-3 0  9991
2 59476  43.0000 291.2811 0001291 247.0243 304.1034 15.50574263  4590
STARLINK-31531          
1 59477U 24068Y   24121.91667824  .00049923  00000+0  85211-3 0  9991
2 59477  43.0003 295.1756 0001592 249.0283 178.1741 15.50554187  4525
DUMMY SAT 3             
1 59479U 24069A   24122.38870383 -.00000177  00000+0  00000+0 0  9990
2 59479   0.0866  74.5854 0048643 124.1395 161.0993  0.98609066   147
WSF-M                   
1 59481U 24070A   24121.94485231  .00000121  00000+0  76782-4 0  9993
2 59481  98.7197 129.4504 0005685  52.3210 307.8482 14.20466819  2748
MICROORBITER-1          
1 59483U 98067WF  24122.45273693  .00086688  00000+0  12635-2 0  9993
2 59483  51.6353 186.7810 0002607  80.0113 280.1172 15.54959331  3181
STARLINK-31753          
1 59484U 24071A   24122.16667824 -.01748374  00000+0 -19934-1 0  9997
2 59484  42.9995 252.7620 0001491 277.4388 224.3518 15.64248965  4018
STARLINK-31653          
1 59485U 24071B   24122.25002315 -.01679709  00000+0 -19718-1 0  9991
2 59485  42.9992 252.2599 0001363 268.9140 344.7040 15.63909279  4024
STARLINK-31733          
1 59486U 24071C   24122.16667824 -.01745538  00000+0 -19907-1 0  9998
2 59486  42.9994 252.7515 0001281 278.7095 227.0153 15.64239518  4017
STARLINK-31657          
1 59487U 24071D   24122.16667824 -.01746103  00000+0 -19922-1 0  9995
2 59487  42.9993 252.7370 0001266 269.6305 241.9959 15.64229867  4062
STARLINK-31754          
1 59488U 24071E   24122.16667824 -.01744665  00000+0 -19900-1 0  9993
2 59488  42.9993 252.7472 0001213 276.1789 231.5214 15.64234962  4068
